0 FENGYUN 1C DEB
1 29783U 99025BZ  13281.75545579  .00011201  00000-0  22566-2 0   456
2 29783 098.9771 086.1762 0129544 184.3716 302.5729 14.56472252355747
0 FENGYUN 1C DEB
1 29783U 99025BZ  13282.71773550  .00013543  00000-0  27237-2 0   467
2 29783 098.9772 087.2120 0129426 181.4928 308.1130 14.56505439355887
0 FENGYUN 1C DEB
1 29783U 99025BZ  13283.74769439  .00016203  00000-0  32535-2 0   476
2 29783 098.9769 088.3207 0129390 178.3600 308.6756 14.56527567356036
0 FENGYUN 1C DEB
1 29783U 99025BZ  13286.13869292  .00012848  00000-0  25808-2 0   498
2 29783 098.9764 090.8946 0129213 171.1294 246.1193 14.56587364356383
0 FENGYUN 1C DEB
1 29783U 99025BZ  13287.16928694  .00012933  00000-0  25965-2 0   505
2 29783 098.9761 092.0042 0129215 168.0035 250.3107 14.56607420356536
0 FENGYUN 1C DEB
1 29783U 99025BZ  13288.19820295  .00021015  00000-0  42053-2 0   516
2 29783 098.9760 093.1120 0129046 164.9003 245.7704 14.56639352356682
0 FENGYUN 1C DEB
1 29783U 99025BZ  13289.43086640  .00016345  00000-0  32733-2 0   527
2 29783 098.9759 094.4394 0128988 161.1596 229.8310 14.56674771356867
0 FENGYUN 1C DEB
1 29783U 99025BZ  13290.68721470  .00017323  00000-0  34657-2 0   538
2 29783 098.9762 095.7922 0128906 157.3521 338.2395 14.56708514357049
0 FENGYUN 1C DEB
1 29783U 99025BZ  13291.71630606  .00014883  00000-0  29788-2 0   541
2 29783 098.9765 096.9004 0128832 154.2290 335.0159 14.56736637357199
0 FENGYUN 1C DEB
1 29783U 99025BZ  13293.14550131  .00013709  00000-0  27433-2 0   556
2 29783 098.9770 098.4397 0128700 149.8830 270.2034 14.56776370357405
0 FENGYUN 1C DEB
1 29783U 99025BZ  13294.17515939  .00015783  00000-0  31542-2 0   568
2 29783 098.9771 099.5486 0128643 146.7545 270.2045 14.56800817357554
0 FENGYUN 1C DEB
1 29783U 99025BZ  13295.20449779  .00015856  00000-0  31671-2 0   576
2 29783 098.9774 100.6572 0128617 143.6282 268.6218 14.56826660357706
